OBJECT_NAME,OBJECT_ID,EPOCH,MEAN_MOTION,ECCENTRICITY,INCLINATION,RA_OF_ASC_NODE,ARG_OF_PERICENTER,MEAN_ANOMALY,EPHEMERIS_TYPE,CLASSIFICATION_TYPE,NORAD_CAT_ID,ELEMENT_SET_NO,REV_AT_EPOCH,BSTAR,MEAN_MOTION_DOT,MEAN_MOTION_DDOT
STARLINK-34568,2025-142X,2026-05-15T06:34:22.987488,14.98344014,.00035982,70.0008,146.6071,263.1699,96.9051,0,U,64717,999,4946,.34670201E-3,.4048E-4,0
STARLINK-34546,2025-142Y,2026-05-15T07:22:26.176224,14.98345225,.00036855,69.9995,146.3204,269.8978,90.1758,0,U,64718,999,4963,.21455899E-3,.2469E-4,0
STARLINK-34577,2025-142Z,2026-05-15T06:40:23.783520,14.98336458,.00040564,69.9999,146.5861,265.5789,94.4907,0,U,64719,999,4946,.25172612E-3,.2912E-4,0
STARLINK-34572,2025-142AA,2026-05-15T06:28:22.648512,14.98340813,.00040806,69.9995,146.5896,268.2316,91.8376,0,U,64720,999,4962,.117481E-3,.1309E-4,0
STARLINK-34558,2025-142AB,2026-05-15T06:28:36.237504,14.98365245,.00033603,70.0000,146.5859,266.2961,93.7814,0,U,64721,999,4943,.87838101E-3,.10413E-3,0
MTG-S1,2025-143A,2026-05-15T05:52:58.306656,1.00268068,.00015047,0.6360,332.1306,17.3769,328.3761,0,U,64723,999,308,0,-.19E-6,0
STARLINK-34393,2025-144A,2026-05-15T07:08:58.008768,15.30200610,.00012458,53.1588,231.3891,80.4834,279.6308,0,U,64724,999,4992,.30463942E-3,.8674E-4,0
STARLINK-34562,2025-144B,2026-05-15T06:34:10.688448,15.30226822,.00014443,53.1575,231.9483,85.2693,274.8472,0,U,64725,999,4988,.28903748E-3,.8218E-4,0
STARLINK-34557,2025-144C,2026-05-14T12:49:11.904384,15.30203551,.00015257,53.1577,235.1528,91.8182,268.2993,0,U,64726,999,4979,.38522696E-3,.11068E-3,0
STARLINK-34242,2025-144D,2026-05-15T06:44:48.876000,15.30200380,.00009832,53.1594,231.9944,83.4592,276.6521,0,U,64727,999,4990,.37575832E-3,.10786E-3,0
STARLINK-34239,2025-144E,2026-05-14T00:06:08.262720,15.30200538,.00013322,53.1620,237.5262,94.1626,265.9527,0,U,64728,999,4971,.28774377E-3,.8172E-4,0
STARLINK-34588,2025-144F,2026-05-15T06:25:03.757440,15.30197551,.00006673,53.1603,231.9083,91.1446,268.9631,0,U,64729,999,4990,.45013949E-3,.12995E-3,0
STARLINK-34606,2025-144G,2026-05-14T06:23:52.038528,15.30206943,.00015554,53.1626,236.3280,101.4478,258.6698,0,U,64730,999,4975,.29449568E-3,.8375E-4,0
STARLINK-34552,2025-144H,2026-05-14T15:36:01.808352,15.30207900,.00010987,53.1581,234.4527,87.2027,272.9100,0,U,64731,999,4981,.35666261E-3,.10221E-3,0
STARLINK-34596,2025-144J,2026-05-14T16:10:59.070720,15.30212647,.00012707,53.1606,234.6025,88.6935,271.4211,0,U,64732,999,4981,.66944904E-3,.19528E-3,0
STARLINK-34556,2025-144K,2026-05-14T12:43:47.674560,15.34403175,.00015116,53.1617,232.2884,89.6155,270.5021,0,U,64733,999,4983,.41171048E-3,.13561E-3,0
STARLINK-34591,2025-144L,2026-05-13T16:11:18.468384,15.30199776,.00007354,53.1573,239.0290,87.6917,272.4167,0,U,64734,999,4964,.27737092E-3,.7865E-4,0
STARLINK-34587,2025-144M,2026-05-15T06:31:08.499360,15.30199870,.00014661,53.1599,231.9353,97.5713,262.5454,0,U,64735,999,4985,.45707012E-3,.13202E-3,0
STARLINK-34130,2025-144N,2026-05-14T12:52:14.204928,15.30207611,.00017027,53.1623,235.1590,92.9181,267.2015,0,U,64736,999,4979,.43118165E-3,.12435E-3,0
STARLINK-34619,2025-144P,2026-05-15T06:50:53.513376,15.30201931,.00006312,53.1589,232.0129,34.0032,326.1009,0,U,64737,999,4990,.34488609E-3,.987E-4,0
STARLINK-34597,2025-144Q,2026-05-15T07:04:24.735936,15.30192198,.00009975,53.1571,231.3618,17.2530,342.8505,0,U,64738,999,4989,.24730363E-3,.6971E-4,0
STARLINK-34471,2025-144R,2026-05-14T13:11:59.389152,15.30197638,.00010502,53.1601,235.2469,93.4686,266.6435,0,U,64739,999,4973,.246136E-3,.6937E-4,0
STARLINK-34208,2025-144S,2026-05-15T06:04:38.454240,15.34401847,.00002833,53.1625,228.9786,351.7418,8.3580,0,U,64740,999,4994,.51237126E-3,.16976E-3,0
STARLINK-34205,2025-144T,2026-05-15T06:12:54.361728,15.30196615,.00001756,53.1647,231.8522,269.5005,90.5976,0,U,64741,999,4990,.43169534E-3,.12447E-3,0
STARLINK-34607,2025-144U,2026-05-15T06:35:41.843904,15.30197577,.00010871,53.1587,231.9511,70.0047,290.1071,0,U,64742,999,4988,.30300289E-3,.8625E-4,0
STARLINK-34236,2025-144V,2026-05-15T06:11:22.890048,15.30218673,.00006925,53.1606,231.8415,273.9413,86.1509,0,U,64743,999,4990,.45449649E-3,.13133E-3,0
STARLINK-34185,2025-144W,2026-05-15T07:12:00.268704,15.30201219,.00011282,53.1599,231.3945,100.0557,260.0572,0,U,64744,999,4991,.29816335E-3,.8482E-4,0
STARLINK-34581,2025-144X,2026-05-15T06:47:51.163584,15.30201670,.00009549,53.1588,232.0012,83.5817,276.5292,0,U,64745,999,4990,.43242502E-3,.1247E-3,0
STARLINK-34592,2025-144Y,2026-05-14T14:58:56.646336,15.30227173,.00007942,53.1568,222.2182,102.4231,257.6859,0,U,64746,999,4998,.94758546E-3,.27834E-3,0
STARLINK-34589,2025-144Z,2026-05-14T12:01:26.445792,15.30202165,.00012658,53.1616,222.8049,95.6770,264.4375,0,U,64747,999,4996,.24572857E-3,.6926E-4,0
