STARLINK-34568          
1 64717U 25142X   26135.27387717  .00004048  00000+0  34670-3 0  9996
2 64717  70.0008 146.6071 0003598 263.1699  96.9051 14.98344014 49469
STARLINK-34546          
1 64718U 25142Y   26135.30724741  .00002469  00000+0  21456-3 0  9996
2 64718  69.9995 146.3204 0003685 269.8978  90.1758 14.98345225 49631
STARLINK-34577          
1 64719U 25142Z   26135.27805305  .00002912  00000+0  25173-3 0  9992
2 64719  69.9999 146.5861 0004056 265.5789  94.4907 14.98336458 49465
STARLINK-34572          
1 64720U 25142AA  26135.26970658  .00001309  00000+0  11748-3 0  9999
2 64720  69.9995 146.5896 0004080 268.2316  91.8376 14.98340813 49623
STARLINK-34558          
1 64721U 25142AB  26135.26986386  .00010413  00000+0  87838-3 0  9994
2 64721  70.0000 146.5859 0003360 266.2961  93.7814 14.98365245 49430
MTG-S1                  
1 64723U 25143A   26135.24511929 -.00000019  00000+0  00000+0 0  9996
2 64723   0.6360 332.1306 0001504  17.3769 328.3761  1.00268068  3082
STARLINK-34393          
1 64724U 25144A   26135.29789362  .00008674  00000+0  30464-3 0  9996
2 64724  53.1588 231.3891 0001245  80.4834 279.6308 15.30200610 49928
STARLINK-34562          
1 64725U 25144B   26135.27373482  .00008218  00000+0  28904-3 0  9997
2 64725  53.1575 231.9483 0001444  85.2693 274.8472 15.30226822 49882
STARLINK-34557          
1 64726U 25144C   26134.53416556  .00011068  00000+0  38523-3 0  9991
2 64726  53.1577 235.1528 0001525  91.8182 268.2993 15.30203551 49796
STARLINK-34242          
1 64727U 25144D   26135.28112125  .00010786  00000+0  37576-3 0  9993
2 64727  53.1594 231.9944 0000983  83.4592 276.6521 15.30200380 49901
STARLINK-34239          
1 64728U 25144E   26134.00426230  .00008172  00000+0  28774-3 0  9994
2 64728  53.1620 237.5262 0001332  94.1626 265.9527 15.30200538 49714
STARLINK-34588          
1 64729U 25144F   26135.26740460  .00012995  00000+0  45014-3 0  9992
2 64729  53.1603 231.9083 0000667  91.1446 268.9631 15.30197551 49902
STARLINK-34606          
1 64730U 25144G   26134.26657452  .00008375  00000+0  29450-3 0  9994
2 64730  53.1626 236.3280 0001555 101.4478 258.6698 15.30206943 49752
STARLINK-34552          
1 64731U 25144H   26134.65002093  .00010221  00000+0  35666-3 0  9992
2 64731  53.1581 234.4527 0001098  87.2027 272.9100 15.30207900 49817
STARLINK-34596          
1 64732U 25144J   26134.67429480  .00019528  00000+0  66945-3 0  9991
2 64732  53.1606 234.6025 0001270  88.6935 271.4211 15.30212647 49817
STARLINK-34556          
1 64733U 25144K   26134.53041290  .00013561  00000+0  41171-3 0  9991
2 64733  53.1617 232.2884 0001511  89.6155 270.5021 15.34403175 49833
STARLINK-34591          
1 64734U 25144L   26133.67451931  .00007865  00000+0  27737-3 0  9995
2 64734  53.1573 239.0290 0000735  87.6917 272.4167 15.30199776 49648
STARLINK-34587          
1 64735U 25144M   26135.27162615  .00013202  00000+0  45707-3 0  9991
2 64735  53.1599 231.9353 0001466  97.5713 262.5454 15.30199870 49851
STARLINK-34130          
1 64736U 25144N   26134.53627552  .00012435  00000+0  43118-3 0  9997
2 64736  53.1623 235.1590 0001702  92.9181 267.2015 15.30207611 49791
STARLINK-34619          
1 64737U 25144P   26135.28534159  .00009870  00000+0  34489-3 0  9991
2 64737  53.1589 232.0129 0000631  34.0032 326.1009 15.30201931 49909
STARLINK-34597          
1 64738U 25144Q   26135.29473074  .00006971  00000+0  24730-3 0  9998
2 64738  53.1571 231.3618 0000997  17.2530 342.8505 15.30192198 49895
STARLINK-34471          
1 64739U 25144R   26134.54999293  .00006937  00000+0  24614-3 0  9995
2 64739  53.1601 235.2469 0001050  93.4686 266.6435 15.30197638 49738
STARLINK-34208          
1 64740U 25144S   26135.25322285  .00016976  00000+0  51237-3 0  9992
2 64740  53.1625 228.9786 0000283 351.7418   8.3580 15.34401847 49946
STARLINK-34205          
1 64741U 25144T   26135.25896252  .00012447  00000+0  43170-3 0  9999
2 64741  53.1647 231.8522 0000175 269.5005  90.5976 15.30196615 49908
STARLINK-34607          
1 64742U 25144U   26135.27478986  .00008625  00000+0  30300-3 0  9996
2 64742  53.1587 231.9511 0001087  70.0047 290.1071 15.30197577 49884
STARLINK-34236          
1 64743U 25144V   26135.25790382  .00013133  00000+0  45450-3 0  9994
2 64743  53.1606 231.8415 0000692 273.9413  86.1509 15.30218673 49904
STARLINK-34185          
1 64744U 25144W   26135.30000311  .00008482  00000+0  29816-3 0  9996
2 64744  53.1599 231.3945 0001128 100.0557 260.0572 15.30201219 49915
STARLINK-34581          
1 64745U 25144X   26135.28323106  .00012470  00000+0  43243-3 0  9996
2 64745  53.1588 232.0012 0000954  83.5817 276.5292 15.30201670 49908
STARLINK-34592          
1 64746U 25144Y   26134.62426674  .00027834  00000+0  94759-3 0  9996
2 64746  53.1568 222.2182 0000794 102.4231 257.6859 15.30227173 49982
STARLINK-34589          
1 64747U 25144Z   26134.50100053  .00006926  00000+0  24573-3 0  9990
2 64747  53.1616 222.8049 0001265  95.6770 264.4375 15.30202165 49961
